CCSDS_OMM_VERS = 2.0
CREATION_DATE  = 
ORIGINATOR     = 

OBJECT_NAME    = SL-14 R/B
OBJECT_ID      = 1991-042B
CENTER_NAME    = EARTH
REF_FRAME      = TEME
TIME_SYSTEM    = UTC
MEAN_ELEMENT_THEORY = SGP/SGP4

EPOCH          = 2026-01-08T06:05:02.131296
MEAN_MOTION    = 14.81769127
ECCENTRICITY   = .00185891
INCLINATION    = 82.4936
RA_OF_ASC_NODE = 276.8634
ARG_OF_PERICENTER = 80.4440
MEAN_ANOMALY   = 279.8874

EPHEMERIS_TYPE = 0
CLASSIFICATION_TYPE = U
NORAD_CAT_ID   = 21423
ELEMENT_SET_NO = 999
REV_AT_EPOCH   = 84412
BSTAR          = .64322887E-4
MEAN_MOTION_DOT = .532E-5
MEAN_MOTION_DDOT = 0

CCSDS_OMM_VERS = 2.0
CREATION_DATE  = 
ORIGINATOR     = 

OBJECT_NAME    = ERS-1
OBJECT_ID      = 1991-050A
CENTER_NAME    = EARTH
REF_FRAME      = TEME
TIME_SYSTEM    = UTC
MEAN_ELEMENT_THEORY = SGP/SGP4

EPOCH          = 2026-01-08T00:19:08.051232
MEAN_MOTION    = 14.39390681
ECCENTRICITY   = .00323633
INCLINATION    = 98.7897
RA_OF_ASC_NODE = 24.7245
ARG_OF_PERICENTER = 24.0884
MEAN_ANOMALY   = 336.1809

EPHEMERIS_TYPE = 0
CLASSIFICATION_TYPE = U
NORAD_CAT_ID   = 21574
ELEMENT_SET_NO = 999
REV_AT_EPOCH   = 80700
BSTAR          = .13168625E-3
MEAN_MOTION_DOT = .366E-5
MEAN_MOTION_DDOT = 0

CCSDS_OMM_VERS = 2.0
CREATION_DATE  = 
ORIGINATOR     = 

OBJECT_NAME    = ARIANE 40 R/B
OBJECT_ID      = 1991-050F
CENTER_NAME    = EARTH
REF_FRAME      = TEME
TIME_SYSTEM    = UTC
MEAN_ELEMENT_THEORY = SGP/SGP4

EPOCH          = 2026-01-08T03:20:16.226016
MEAN_MOTION    = 14.42839437
ECCENTRICITY   = .00020488
INCLINATION    = 98.2126
RA_OF_ASC_NODE = 62.6122
ARG_OF_PERICENTER = 248.4150
MEAN_ANOMALY   = 111.6822

EPHEMERIS_TYPE = 0
CLASSIFICATION_TYPE = U
NORAD_CAT_ID   = 21610
ELEMENT_SET_NO = 999
REV_AT_EPOCH   = 81026
BSTAR          = .11206495E-3
MEAN_MOTION_DOT = .332E-5
MEAN_MOTION_DDOT = 0

CCSDS_OMM_VERS = 2.0
CREATION_DATE  = 
ORIGINATOR     = 

OBJECT_NAME    = INTERCOSMOS 25
OBJECT_ID      = 1991-086A
CENTER_NAME    = EARTH
REF_FRAME      = TEME
TIME_SYSTEM    = UTC
MEAN_ELEMENT_THEORY = SGP/SGP4

EPOCH          = 2026-01-08T07:16:01.653024
MEAN_MOTION    = 12.11837110
ECCENTRICITY   = .14859403
INCLINATION    = 82.6086
RA_OF_ASC_NODE = 346.5067
ARG_OF_PERICENTER = 247.1021
MEAN_ANOMALY   = 96.6743

EPHEMERIS_TYPE = 0
CLASSIFICATION_TYPE = U
NORAD_CAT_ID   = 21819
ELEMENT_SET_NO = 999
REV_AT_EPOCH   = 48937
BSTAR          = .34635483E-3
MEAN_MOTION_DOT = .1741E-4
MEAN_MOTION_DDOT = 0

CCSDS_OMM_VERS = 2.0
CREATION_DATE  = 
ORIGINATOR     = 

OBJECT_NAME    = SL-8 R/B
OBJECT_ID      = 1992-008B
CENTER_NAME    = EARTH
REF_FRAME      = TEME
TIME_SYSTEM    = UTC
MEAN_ELEMENT_THEORY = SGP/SGP4

EPOCH          = 2026-01-08T07:17:32.316864
MEAN_MOTION    = 13.75965294
ECCENTRICITY   = .00336395
INCLINATION    = 82.9286
RA_OF_ASC_NODE = 312.6894
ARG_OF_PERICENTER = 304.9363
MEAN_ANOMALY   = 165.3485

EPHEMERIS_TYPE = 0
CLASSIFICATION_TYPE = U
NORAD_CAT_ID   = 21876
ELEMENT_SET_NO = 999
REV_AT_EPOCH   = 70111
BSTAR          = .11515437E-3
MEAN_MOTION_DOT = .127E-5
MEAN_MOTION_DDOT = 0

CCSDS_OMM_VERS = 2.0
CREATION_DATE  = 
ORIGINATOR     = 

OBJECT_NAME    = SL-8 R/B
OBJECT_ID      = 1992-020B
CENTER_NAME    = EARTH
REF_FRAME      = TEME
TIME_SYSTEM    = UTC
MEAN_ELEMENT_THEORY = SGP/SGP4

EPOCH          = 2026-01-08T06:26:25.115136
MEAN_MOTION    = 13.75535723
ECCENTRICITY   = .00301896
INCLINATION    = 82.9291
RA_OF_ASC_NODE = 198.6170
ARG_OF_PERICENTER = 105.8860
MEAN_ANOMALY   = 67.4040

EPHEMERIS_TYPE = 0
CLASSIFICATION_TYPE = U
NORAD_CAT_ID   = 21938
ELEMENT_SET_NO = 999
REV_AT_EPOCH   = 69282
BSTAR          = .16613846E-3
MEAN_MOTION_DOT = .176E-5
MEAN_MOTION_DDOT = 0

CCSDS_OMM_VERS = 2.0
CREATION_DATE  = 
ORIGINATOR     = 

OBJECT_NAME    = USA 81
OBJECT_ID      = 1992-023A
CENTER_NAME    = EARTH
REF_FRAME      = TEME
TIME_SYSTEM    = UTC
MEAN_ELEMENT_THEORY = SGP/SGP4

EPOCH          = 2026-01-07T22:50:43.156896
MEAN_MOTION    = 14.32339458
ECCENTRICITY   = .0001347
INCLINATION    = 85.0093
RA_OF_ASC_NODE = 166.4593
ARG_OF_PERICENTER = 114.8660
MEAN_ANOMALY   = 245.2672

EPHEMERIS_TYPE = 0
CLASSIFICATION_TYPE = U
NORAD_CAT_ID   = 21949
ELEMENT_SET_NO = 999
REV_AT_EPOCH   = 8609
BSTAR          = .74053E-4
MEAN_MOTION_DOT = .22E-5
MEAN_MOTION_DDOT = 0

CCSDS_OMM_VERS = 2.0
CREATION_DATE  = 
ORIGINATOR     = 

OBJECT_NAME    = COSMOS 2219
OBJECT_ID      = 1992-076A
CENTER_NAME    = EARTH
REF_FRAME      = TEME
TIME_SYSTEM    = UTC
MEAN_ELEMENT_THEORY = SGP/SGP4

EPOCH          = 2026-01-08T07:44:24.292032
MEAN_MOTION    = 14.14079801
ECCENTRICITY   = .00203208
INCLINATION    = 71.0611
RA_OF_ASC_NODE = 144.2641
ARG_OF_PERICENTER = 290.2088
MEAN_ANOMALY   = 69.6849

EPHEMERIS_TYPE = 0
CLASSIFICATION_TYPE = U
NORAD_CAT_ID   = 22219
ELEMENT_SET_NO = 999
REV_AT_EPOCH   = 70984
BSTAR          = .12542915E-3
MEAN_MOTION_DOT = .192E-5
MEAN_MOTION_DDOT = 0

CCSDS_OMM_VERS = 2.0
CREATION_DATE  = 
ORIGINATOR     = 

OBJECT_NAME    = SL-16 R/B
OBJECT_ID      = 1992-076B
CENTER_NAME    = EARTH
REF_FRAME      = TEME
TIME_SYSTEM    = UTC
MEAN_ELEMENT_THEORY = SGP/SGP4

EPOCH          = 2026-01-08T06:31:37.349184
MEAN_MOTION    = 14.16846153
ECCENTRICITY   = .00134079
INCLINATION    = 71.0012
RA_OF_ASC_NODE = 315.6416
ARG_OF_PERICENTER = 197.3046
MEAN_ANOMALY   = 269.6872

EPHEMERIS_TYPE = 0
CLASSIFICATION_TYPE = U
NORAD_CAT_ID   = 22220
ELEMENT_SET_NO = 999
REV_AT_EPOCH   = 71327
BSTAR          = .11434903E-3
MEAN_MOTION_DOT = .182E-5
MEAN_MOTION_DDOT = 0

CCSDS_OMM_VERS = 2.0
CREATION_DATE  = 
ORIGINATOR     = 

OBJECT_NAME    = COSMOS 2221
OBJECT_ID      = 1992-080A
CENTER_NAME    = EARTH
REF_FRAME      = TEME
TIME_SYSTEM    = UTC
MEAN_ELEMENT_THEORY = SGP/SGP4

EPOCH          = 2026-01-08T07:23:41.565408
MEAN_MOTION    = 14.95900361
ECCENTRICITY   = .00157535
INCLINATION    = 82.5057
RA_OF_ASC_NODE = 336.8922
ARG_OF_PERICENTER = 41.0160
MEAN_ANOMALY   = 319.2243

EPHEMERIS_TYPE = 0
CLASSIFICATION_TYPE = U
NORAD_CAT_ID   = 22236
ELEMENT_SET_NO = 999
REV_AT_EPOCH   = 77176
BSTAR          = .25453532E-3
MEAN_MOTION_DOT = .2879E-4
MEAN_MOTION_DDOT = 0

CCSDS_OMM_VERS = 2.0
CREATION_DATE  = 
ORIGINATOR     = 

OBJECT_NAME    = SL-16 R/B
OBJECT_ID      = 1992-093B
CENTER_NAME    = EARTH
REF_FRAME      = TEME
TIME_SYSTEM    = UTC
MEAN_ELEMENT_THEORY = SGP/SGP4

EPOCH          = 2026-01-08T07:35:30.861024
MEAN_MOTION    = 14.15434068
ECCENTRICITY   = .00032769
INCLINATION    = 71.0213
RA_OF_ASC_NODE = 131.0075
ARG_OF_PERICENTER = 7.0603
MEAN_ANOMALY   = 353.0566

EPHEMERIS_TYPE = 0
CLASSIFICATION_TYPE = U
NORAD_CAT_ID   = 22285
ELEMENT_SET_NO = 999
REV_AT_EPOCH   = 70461
BSTAR          = .50063178E-4
MEAN_MOTION_DOT = .5E-6
MEAN_MOTION_DDOT = 0

CCSDS_OMM_VERS = 2.0
CREATION_DATE  = 
ORIGINATOR     = 

OBJECT_NAME    = COSMOS 2228
OBJECT_ID      = 1992-094A
CENTER_NAME    = EARTH
REF_FRAME      = TEME
TIME_SYSTEM    = UTC
MEAN_ELEMENT_THEORY = SGP/SGP4

EPOCH          = 2026-01-08T07:07:45.380928
MEAN_MOTION    = 14.96884002
ECCENTRICITY   = .00189388
INCLINATION    = 82.5193
RA_OF_ASC_NODE = 295.1243
ARG_OF_PERICENTER = 140.6087
MEAN_ANOMALY   = 219.6517

EPHEMERIS_TYPE = 0
CLASSIFICATION_TYPE = U
NORAD_CAT_ID   = 22286
ELEMENT_SET_NO = 999
REV_AT_EPOCH   = 76702
BSTAR          = .20162489E-3
MEAN_MOTION_DOT = .2347E-4
MEAN_MOTION_DDOT = 0

