SL-14 R/B               
1 21423U 91042B   26008.25349689  .00000532  00000+0  64323-4 0  9991
2 21423  82.4936 276.8634 0018589  80.4440 279.8874 14.81769127844123
ERS-1                   
1 21574U 91050A   26008.01328763  .00000366  00000+0  13169-3 0  9997
2 21574  98.7897  24.7245 0032363  24.0884 336.1809 14.39390681807005
ARIANE 40 R/B           
1 21610U 91050F   26008.13907669  .00000332  00000+0  11206-3 0  9992
2 21610  98.2126  62.6122 0002048 248.4150 111.6822 14.42839437810260
INTERCOSMOS 25          
1 21819U 91086A   26008.30279691  .00001741  00000+0  34635-3 0  9994
2 21819  82.6086 346.5067 1485940 247.1021  96.6743 12.11837110489373
SL-8 R/B                
1 21876U 92008B   26008.30384626  .00000127  00000+0  11515-3 0  9996
2 21876  82.9286 312.6894 0033639 304.9363 165.3485 13.75965294701119
SL-8 R/B                
1 21938U 92020B   26008.26834624  .00000176  00000+0  16614-3 0  9991
2 21938  82.9291 198.6170 0030189 105.8860  67.4040 13.75535723692826
USA 81                  
1 21949U 92023A   26007.95188839  .00000220  00000+0  74053-4 0  9993
2 21949  85.0093 166.4593 0001347 114.8660 245.2672 14.32339458 86090
COSMOS 2219             
1 22219U 92076A   26008.32250338  .00000192  00000+0  12543-3 0  9991
2 22219  71.0611 144.2641 0020320 290.2088  69.6849 14.14079801709847
SL-16 R/B               
1 22220U 92076B   26008.27196006  .00000182  00000+0  11435-3 0  9996
2 22220  71.0012 315.6416 0013407 197.3046 269.6872 14.16846153713271
COSMOS 2221             
1 22236U 92080A   26008.30811997  .00002879  00000+0  25454-3 0  9996
2 22236  82.5057 336.8922 0015753  41.0160 319.2243 14.95900361771760
SL-16 R/B               
1 22285U 92093B   26008.31632941  .00000050  00000+0  50063-4 0  9999
2 22285  71.0213 131.0075 0003276   7.0603 353.0566 14.15434068704618
COSMOS 2228             
1 22286U 92094A   26008.29705302  .00002347  00000+0  20162-3 0  9997
2 22286  82.5193 295.1243 0018938 140.6087 219.6517 14.96884002767026
